CTC1_L_00332001-01
1 11596U 26774CA  26070.40835648  .00000000  00000+0  00000-0 0  9990
2 11596  90.0000   0.0000 0000000   0.0000   0.0000 14.51731151    13
CTC1_L_00332001-02
1 11597U 22640HF  26070.40835648  .00000000  00000+0  00000-0 0  9999
2 11597  90.0000   0.0000 0000000   0.0000  90.0000 14.51731151    13
CTC1_L_00332001-03
1 11598U 24516OA  26070.40835648  .00000000  00000+0  00000-0 0  9994
2 11598  90.0000   0.0000 0000000   0.0000 180.0000 14.51731151    14
CTC1_L_00332001-04
1 11599U 26675F   26070.40835648  .00000000  00000+0  00000-0 0  9993
2 11599  90.0000   0.0000 0000000   0.0000 270.0000 14.51731151    15
CTC1_L_00332002-01
1 11600U 24745UR  26070.40835648  .00000000  00000+0  00000-0 0  9992
2 11600  90.0000  12.0000 0000000   0.0000  12.0000 14.51731151    15
CTC1_L_00332002-02
1 11601U 22346OH  26070.40835648  .00000000  00000+0  00000-0 0  9998
2 11601  90.0000  12.0000 0000000   0.0000 102.0000 14.51731151    16
CTC1_L_00332002-03
1 11602U 25949SV  26070.40835648  .00000000  00000+0  00000-0 0  9991
2 11602  90.0000  12.0000 0000000   0.0000 192.0000 14.51731151    16
CTC1_L_00332002-04
1 11603U 25358KR  26070.40835648  .00000000  00000+0  00000-0 0  9996
2 11603  90.0000  12.0000 0000000   0.0000 282.0000 14.51731151    17
CTC1_L_00332003-01
1 11604U 22125LA  26070.40835648  .00000000  00000+0  00000-0 0  9996
2 11604  90.0000  24.0000 0000000   0.0000  24.0000 14.51731151    15
CTC1_L_00332003-02
1 11605U 26700JH  26070.40835648  .00000000  00000+0  00000-0 0  9990
2 11605  90.0000  24.0000 0000000   0.0000 114.0000 14.51731151    16
CTC1_L_00332003-03
1 11606U 26949RH  26070.40835648  .00000000  00000+0  00000-0 0  9996
2 11606  90.0000  24.0000 0000000   0.0000 204.0000 14.51731151    17
CTC1_L_00332003-04
1 11607U 26952XQ  26070.40835648  .00000000  00000+0  00000-0 0  9991
2 11607  90.0000  24.0000 0000000   0.0000 294.0000 14.51731151    17
CTC1_L_00332004-01
1 11608U 25736FZ  26070.40835648  .00000000  00000+0  00000-0 0  9991
2 11608  90.0000  36.0000 0000000   0.0000  36.0000 14.51731151    15
CTC1_L_00332004-02
1 11609U 23698JN  26070.40835648  .00000000  00000+0  00000-0 0  9997
2 11609  90.0000  36.0000 0000000   0.0000 126.0000 14.51731151    16
CTC1_L_00332004-03
1 11610U 25577JR  26070.40835648  .00000000  00000+0  00000-0 0  9997
2 11610  90.0000  36.0000 0000000   0.0000 216.0000 14.51731151    18
CTC1_L_00332004-04
1 11611U 24794PF  26070.40835648  .00000000  00000+0  00000-0 0  9998
2 11611  90.0000  36.0000 0000000   0.0000 306.0000 14.51731151    19
CTC1_L_00332005-01
1 11612U 26078DF  26070.40835648  .00000000  00000+0  00000-0 0  9996
2 11612  90.0000  48.0000 0000000   0.0000  48.0000 14.51731151    16
CTC1_L_00332005-02
1 11613U 26803JX  26070.40835648  .00000000  00000+0  00000-0 0  9993
2 11613  90.0000  48.0000 0000000   0.0000 138.0000 14.51731151    17
CTC1_L_00332005-03
1 11614U 26572NN  26070.40835648  .00000000  00000+0  00000-0 0  9997
2 11614  90.0000  48.0000 0000000   0.0000 228.0000 14.51731151    18
CTC1_L_00332005-04
1 11615U 26242LB  26070.40835648  .00000000  00000+0  00000-0 0  9992
2 11615  90.0000  48.0000 0000000   0.0000 318.0000 14.51731151    19
CTC1_L_00332006-01
1 11616U 23398CP  26070.40835648  .00000000  00000+0  00000-0 0  9992
2 11616  90.0000  60.0000 0000000   0.0000  60.0000 14.51731151    18
CTC1_L_00332006-02
1 11617U 22183NO  26070.40835648  .00000000  00000+0  00000-0 0  9994
2 11617  90.0000  60.0000 0000000   0.0000 150.0000 14.51731151    19
CTC1_L_00332006-03
1 11618U 24269SU  26070.40835648  .00000000  00000+0  00000-0 0  9992
2 11618  90.0000  60.0000 0000000   0.0000 240.0000 14.51731151    10
CTC1_L_00332006-04
1 11619U 24363XH  26070.40835648  .00000000  00000+0  00000-0 0  9998
2 11619  90.0000  60.0000 0000000   0.0000 330.0000 14.51731151    11
CTC1_L_00332007-01
1 11620U 24116P   26070.40835648  .00000000  00000+0  00000-0 0  9996
2 11620  90.0000  72.0000 0000000   0.0000  72.0000 14.51731151    19
CTC1_L_00332007-02
1 11621U 25178LH  26070.40835648  .00000000  00000+0  00000-0 0  9996
2 11621  90.0000  72.0000 0000000   0.0000 162.0000 14.51731151    10
CTC1_L_00332007-03
1 11622U 23944BN  26070.40835648  .00000000  00000+0  00000-0 0  9996
2 11622  90.0000  72.0000 0000000   0.0000 252.0000 14.51731151    11
CTC1_L_00332007-04
1 11623U 23601OJ  26070.40835648  .00000000  00000+0  00000-0 0  9997
2 11623  90.0000  72.0000 0000000   0.0000 342.0000 14.51731151    12
CTC1_L_00332008-01
1 11624U 26858KC  26070.40835648  .00000000  00000+0  00000-0 0  9995
2 11624  90.0000  84.0000 0000000   0.0000  84.0000 14.51731151    19
CTC1_L_00332008-02
1 11625U 26313WN  26070.40835648  .00000000  00000+0  00000-0 0  9992
2 11625  90.0000  84.0000 0000000   0.0000 174.0000 14.51731151    10
CTC1_L_00332008-03
1 11626U 26947SG  26070.40835648  .00000000  00000+0  00000-0 0  9996
2 11626  90.0000  84.0000 0000000   0.0000 264.0000 14.51731151    11
CTC1_L_00332008-04
1 11627U 24144S   26070.40835648  .00000000  00000+0  00000-0 0  9994
2 11627  90.0000  84.0000 0000000   0.0000 354.0000 14.51731151    12
CTC1_L_00332009-01
1 11628U 24903IR  26070.40835648  .00000000  00000+0  00000-0 0  9998
2 11628  90.0000  96.0000 0000000   0.0000  96.0000 14.51731151    19
CTC1_L_00332009-02
1 11629U 22087KJ  26070.40835648  .00000000  00000+0  00000-0 0  9990
2 11629  90.0000  96.0000 0000000   0.0000 186.0000 14.51731151    10
CTC1_L_00332009-03
1 11630U 26719JF  26070.40835648  .00000000  00000+0  00000-0 0  9998
2 11630  90.0000  96.0000 0000000   0.0000 276.0000 14.51731151    12
CTC1_L_00332009-04
1 11631U 25624HN  26070.40835648  .00000000  00000+0  00000-0 0  9993
2 11631  90.0000  96.0000 0000000   0.0000   6.0000 14.51731151    14
CTC1_L_00332010-01
1 11632U 22908XU  26070.40835648  .00000000  00000+0  00000-0 0  9996
2 11632  90.0000 108.0000 0000000   0.0000 108.0000 14.51731151    12
CTC1_L_00332010-02
1 11633U 22082RZ  26070.40835648  .00000000  00000+0  00000-0 0  9990
2 11633  90.0000 108.0000 0000000   0.0000 198.0000 14.51731151    12
CTC1_L_00332010-03
1 11634U 22979VA  26070.40835648  .00000000  00000+0  00000-0 0  9996
2 11634  90.0000 108.0000 0000000   0.0000 288.0000 14.51731151    13
CTC1_L_00332010-04
1 11635U 24806JO  26070.40835648  .00000000  00000+0  00000-0 0  9998
2 11635  90.0000 108.0000 0000000   0.0000  18.0000 14.51731151    15
CTC1_L_00332011-01
1 11636U 23637DE  26070.40835648  .00000000  00000+0  00000-0 0  9990
2 11636  90.0000 120.0000 0000000   0.0000 120.0000 14.51731151    14
CTC1_L_00332011-02
1 11637U 26596MS  26070.40835648  .00000000  00000+0  00000-0 0  9998
2 11637  90.0000 120.0000 0000000   0.0000 210.0000 14.51731151    15
CTC1_L_00332011-03
1 11638U 22502IW  26070.40835648  .00000000  00000+0  00000-0 0  9992
2 11638  90.0000 120.0000 0000000   0.0000 300.0000 14.51731151    16
CTC1_L_00332011-04
1 11639U 22229SS  26070.40835648  .00000000  00000+0  00000-0 0  9999
2 11639  90.0000 120.0000 0000000   0.0000  30.0000 14.51731151    17
CTC1_L_00332012-01
1 11640U 24144YW  26070.40835648  .00000000  00000+0  00000-0 0  9999
2 11640  90.0000 132.0000 0000000   0.0000 132.0000 14.51731151    15
CTC1_L_00332012-02
1 11641U 24347IU  26070.40835648  .00000000  00000+0  00000-0 0  9995
2 11641  90.0000 132.0000 0000000   0.0000 222.0000 14.51731151    16
CTC1_L_00332012-03
1 11642U 24979KD  26070.40835648  .00000000  00000+0  00000-0 0  9997
2 11642  90.0000 132.0000 0000000   0.0000 312.0000 14.51731151    17
CTC1_L_00332012-04
1 11643U 22447TF  26070.40835648  .00000000  00000+0  00000-0 0  9996
2 11643  90.0000 132.0000 0000000   0.0000  42.0000 14.51731151    18
CTC1_L_00332013-01
1 11644U 25973ZT  26070.40835648  .00000000  00000+0  00000-0 0  9994
2 11644  90.0000 144.0000 0000000   0.0000 144.0000 14.51731151    15
CTC1_L_00332013-02
1 11645U 25985HN  26070.40835648  .00000000  00000+0  00000-0 0  9998
2 11645  90.0000 144.0000 0000000   0.0000 234.0000 14.51731151    16
CTC1_L_00332013-03
1 11646U 26064QS  26070.40835648  .00000000  00000+0  00000-0 0  9998
2 11646  90.0000 144.0000 0000000   0.0000 324.0000 14.51731151    17
CTC1_L_00332013-04
1 11647U 26282RA  26070.40835648  .00000000  00000+0  00000-0 0  9991
2 11647  90.0000 144.0000 0000000   0.0000  54.0000 14.51731151    18
CTC1_L_00332014-01
1 11648U 26560ZK  26070.40835648  .00000000  00000+0  00000-0 0  9991
2 11648  90.0000 156.0000 0000000   0.0000 156.0000 14.51731151    15
CTC1_L_00332014-02
1 11649U 23065ZE  26070.40835648  .00000000  00000+0  00000-0 0  9999
2 11649  90.0000 156.0000 0000000   0.0000 246.0000 14.51731151    16
CTC1_L_00332014-03
1 11650U 26437BX  26070.40835648  .00000000  00000+0  00000-0 0  9997
2 11650  90.0000 156.0000 0000000   0.0000 336.0000 14.51731151    18
CTC1_L_00332014-04
1 11651U 24715IG  26070.40835648  .00000000  00000+0  00000-0 0  9995
2 11651  90.0000 156.0000 0000000   0.0000  66.0000 14.51731151    19
CTC1_L_00332015-01
1 11652U 24901OU  26070.40835648  .00000000  00000+0  00000-0 0  9993
2 11652  90.0000 168.0000 0000000   0.0000 168.0000 14.51731151    16
CTC1_L_00332015-02
1 11653U 24096FL  26070.40835648  .00000000  00000+0  00000-0 0  9999
2 11653  90.0000 168.0000 0000000   0.0000 258.0000 14.51731151    17
CTC1_L_00332015-03
1 11654U 26478SB  26070.40835648  .00000000  00000+0  00000-0 0  9996
2 11654  90.0000 168.0000 0000000   0.0000 348.0000 14.51731151    18
CTC1_L_00332015-04
1 11655U 24095MB  26070.40835648  .00000000  00000+0  00000-0 0  9990
2 11655  90.0000 168.0000 0000000   0.0000  78.0000 14.51731151    19
CTC1_L_00332016-01
1 11656U 26211OJ  26070.40835648  .00000000  00000+0  00000-0 0  9993
2 11656  90.0000 180.0000 0000000   0.0000 180.0000 14.51731151    18
CTC1_L_00332016-02
1 11657U 24763IF  26070.40835648  .00000000  00000+0  00000-0 0  9994
2 11657  90.0000 180.0000 0000000   0.0000 270.0000 14.51731151    19
